{
    "links": {
        "self": "http://www.neowsapp.com/rest/v1/neo/3989332?api_key=iIulBulltgU6a56xZRHN4H3l9WmuAYTsLGpBGhQ2"
    },
    "id": "3989332",
    "neo_reference_id": "3989332",
    "name": "(2020 BJ14)",
    "designation": "2020 BJ14",
    "nasa_jpl_url": "http://ssd.jpl.nasa.gov/sbdb.cgi?sstr=3989332",
    "absolute_magnitude_h": 24.264,
    "estimated_diameter": {
        "kilometers": {
            "estimated_diameter_min": 0.0373039634,
            "estimated_diameter_max": 0.083414198
        },
        "meters": {
            "estimated_diameter_min": 37.3039634222,
            "estimated_diameter_max": 83.4141980423
        },
        "miles": {
            "estimated_diameter_min": 0.0231796011,
            "estimated_diameter_max": 0.0518311637
        },
        "feet": {
            "estimated_diameter_min": 122.3883353542,
            "estimated_diameter_max": 273.6686375051
        }
    },
    "is_potentially_hazardous_asteroid": false,
    "close_approach_data": [
        {
            "close_approach_date": "1948-03-16",
            "close_approach_date_full": "1948-Mar-16 12:45",
            "epoch_date_close_approach": -687784500000,
            "relative_velocity": {
                "kilometers_per_second": "7.0474724411",
                "kilometers_per_hour": "25370.9007879411",
                "miles_per_hour": "15764.4911034848"
            },
            "miss_distance": {
                "astronomical": "1.047854611",
                "lunar": "407.615443679",
                "kilometers": "156756817.87527857",
                "miles": "97404169.936321466"
            },
            "orbiting_body": "Juptr"
        },
        {
            "close_approach_date": "1959-08-02",
            "close_approach_date_full": "1959-Aug-02 08:11",
            "epoch_date_close_approach": -328722540000,
            "relative_velocity": {
                "kilometers_per_second": "18.3528353391",
                "kilometers_per_hour": "66070.2072208417",
                "miles_per_hour": "41053.4573700836"
            },
            "miss_distance": {
                "astronomical": "0.0409920034",
                "lunar": "15.9458893226",
                "kilometers": "6132316.395672758",
                "miles": "3810444.7156017404"
            },
            "orbiting_body": "Mars"
        },
        {
            "close_approach_date": "2020-01-28",
            "close_approach_date_full": "2020-Jan-28 11:56",
            "epoch_date_close_approach": 1580212560000,
            "relative_velocity": {
                "kilometers_per_second": "15.4492609392",
                "kilometers_per_hour": "55617.339380981",
                "miles_per_hour": "34558.4517948101"
            },
            "miss_distance": {
                "astronomical": "0.0217182919",
                "lunar": "8.4484155491",
                "kilometers": "3249010.208278253",
                "miles": "2018841.3285077714"
            },
            "orbiting_body": "Earth"
        },
        {
            "close_approach_date": "2031-01-28",
            "close_approach_date_full": "2031-Jan-28 03:36",
            "epoch_date_close_approach": 1927337760000,
            "relative_velocity": {
                "kilometers_per_second": "7.9716859436",
                "kilometers_per_hour": "28698.0693969489",
                "miles_per_hour": "17831.864287232"
            },
            "miss_distance": {
                "astronomical": "1.1764324601",
                "lunar": "457.6322269789",
                "kilometers": "175991790.229819987",
                "miles": "109356227.5331583406"
            },
            "orbiting_body": "Juptr"
        }
    ],
    "orbital_data": {
        "orbit_id": "11",
        "orbit_determination_date": "2020-08-22 06:32:31",
        "first_observation_date": "2020-01-30",
        "last_observation_date": "2020-02-22",
        "data_arc_in_days": 23,
        "observations_used": 92,
        "orbit_uncertainty": "7",
        "minimum_orbit_intersection": ".0173677",
        "jupiter_tisserand_invariant": "2.897",
        "epoch_osculation": "2459000.5",
        "eccentricity": ".705632423189767",
        "semi_major_axis": "2.798827046660094",
        "inclination": "2.662761877296598",
        "ascending_node_longitude": "104.2256192149732",
        "orbital_period": "1710.261502596019",
        "perihelion_distance": ".8238839356362726",
        "perihelion_argument": "329.69516412",
        "aphelion_distance": "4.773770157683915",
        "perihelion_time": "2458841.988572255344",
        "mean_anomaly": "33.36572442369663",
        "mean_motion": ".2104941258711333",
        "equinox": "J2000",
        "orbit_class": {
            "orbit_class_type": "APO",
            "orbit_class_description": "Near-Earth asteroid orbits which cross the Earth’s orbit similar to that of 1862 Apollo",
            "orbit_class_range": "a (semi-major axis) > 1.0 AU; q (perihelion) < 1.017 AU"
        }
    },
    "is_sentry_object": false
}